{
    "links": {
        "self": "http://www.neowsapp.com/rest/v1/neo/3963431?api_key=iIulBulltgU6a56xZRHN4H3l9WmuAYTsLGpBGhQ2"
    },
    "id": "3963431",
    "neo_reference_id": "3963431",
    "name": "(2019 YV4)",
    "designation": "2019 YV4",
    "nasa_jpl_url": "http://ssd.jpl.nasa.gov/sbdb.cgi?sstr=3963431",
    "absolute_magnitude_h": 27.3,
    "estimated_diameter": {
        "kilometers": {
            "estimated_diameter_min": 0.0092162655,
            "estimated_diameter_max": 0.0206081961
        },
        "meters": {
            "estimated_diameter_min": 9.216265485,
            "estimated_diameter_max": 20.6081961232
        },
        "miles": {
            "estimated_diameter_min": 0.0057267201,
            "estimated_diameter_max": 0.0128053354
        },
        "feet": {
            "estimated_diameter_min": 30.2370924539,
            "estimated_diameter_max": 67.6121941689
        }
    },
    "is_potentially_hazardous_asteroid": false,
    "close_approach_data": [
        {
            "close_approach_date": "2019-12-25",
            "close_approach_date_full": "2019-Dec-25 16:25",
            "epoch_date_close_approach": 1577291100000,
            "relative_velocity": {
                "kilometers_per_second": "20.4238602244",
                "kilometers_per_hour": "73525.8968079062",
                "miles_per_hour": "45686.1329360015"
            },
            "miss_distance": {
                "astronomical": "0.0021201501",
                "lunar": "0.8247383889",
                "kilometers": "317169.939040287",
                "miles": "197080.2613864806"
            },
            "orbiting_body": "Moon"
        },
        {
            "close_approach_date": "2019-12-25",
            "close_approach_date_full": "2019-Dec-25 21:41",
            "epoch_date_close_approach": 1577310060000,
            "relative_velocity": {
                "kilometers_per_second": "20.1186406475",
                "kilometers_per_hour": "72427.1063310457",
                "miles_per_hour": "45003.3872644212"
            },
            "miss_distance": {
                "astronomical": "0.002510813",
                "lunar": "0.976706257",
                "kilometers": "375612.27676831",
                "miles": "233394.646130278"
            },
            "orbiting_body": "Earth"
        }
    ],
    "orbital_data": {
        "orbit_id": "1",
        "orbit_determination_date": "2019-12-31 20:12:04",
        "first_observation_date": "2019-12-30",
        "last_observation_date": "2019-12-30",
        "data_arc_in_days": null,
        "observations_used": 17,
        "orbit_uncertainty": "9",
        "minimum_orbit_intersection": ".000918932",
        "jupiter_tisserand_invariant": "2.956",
        "epoch_osculation": "2458848.5",
        "eccentricity": ".7413496294700973",
        "semi_major_axis": "2.586294103603933",
        "inclination": "3.639401380586719",
        "ascending_node_longitude": "94.56361082153121",
        "orbital_period": "1519.201188174113",
        "perihelion_distance": ".6689459281964597",
        "perihelion_argument": "283.5138140646445",
        "aphelion_distance": "4.503642279011406",
        "perihelion_time": "2458801.326042498615",
        "mean_anomaly": "11.17865417213737",
        "mean_motion": ".2369666393117257",
        "equinox": "J2000",
        "orbit_class": {
            "orbit_class_type": "APO",
            "orbit_class_description": "Near-Earth asteroid orbits which cross the Earth’s orbit similar to that of 1862 Apollo",
            "orbit_class_range": "a (semi-major axis) > 1.0 AU; q (perihelion) < 1.017 AU"
        }
    },
    "is_sentry_object": false
}